NEUTRON-1               
1 46923U 98067RT  20337.81293178  .00012841  00000-0  22762-3 0  9996
2 46923  51.6424 233.8765 0003009  89.7085 270.4249 15.50617608  4349
DESCENT                 
1 46924U 98067RU  20337.74567891  .00028418  00000-0  48455-3 0  9999
2 46924  51.6420 234.1782 0003277 117.3197 242.8127 15.51118174  4307
SATLLA-1                
1 46927U 98067RX  20337.94306545  .00015381  00000-0  27139-3 0  9992
2 46927  51.6460 233.2379 0003783 113.2515 246.9102 15.50575105  4260
